TIANLIAN 2-05           
1 63662U 25084A   26088.19052042  .00000096  00000+0  00000+0 0  9992
2 63662   4.6541 280.7180 0003397  93.9110 260.8993  1.00270064  3578
TJS-19                  
1 63924U 25097A   26087.75213838 -.00000299  00000+0  00000+0 0  9996
2 63924   3.4239 316.1791 0002522 336.7721 305.1825  1.00274898  3337
CHINASAT 3B             
1 64062U 25106A   26087.12127925 -.00000065  00000+0  00000+0 0  9994
2 64062   0.0423   0.8450 0001394 349.2474  46.4072  1.00270398  3248
SXM-10                  
1 64290U 25122A   26088.13794728 -.00000036  00000+0  00000+0 0  9996
2 64290   0.0402  34.6730 0002630 332.3394 113.0144  1.00271482  2887
CHINASAT 9C             
1 64470U 25132A   26083.78357170 -.00000256  00000+0  00000+0 0  9993
2 64470   0.0154 188.5944 0002611 160.8242 207.1098  1.00270458  3305
MTG-S1                  
1 64723U 25143A   26088.18584039 -.00000052  00000+0  00000+0 0  9995
2 64723   0.6269 331.1047 0002355 349.6462 289.2002  1.00271994  2610
DROR 1                  
1 64784U 25148A   26088.18566705 -.00000054  00000+0  00000+0 0  9999
2 64784   0.0354  70.4166 0003623 285.6161 253.3751  1.00271724  2495
SHIYAN-29               
1 65486U 25196A   26087.77749438 -.00000283  00000+0  00000+0 0  9996
2 65486  28.7378  19.5487 0009790 181.3850   0.4880  1.00280818  2078
NUSANTARA LIMA (NUSANT*)
1 65588U 25205A   26088.06627139 -.00000377  00000+0  00000+0 0  9990
2 65588   0.0530  37.1406 0000772   2.4587 283.5801  1.00272868  1917
TJS-20                  
1 66142U 25238A   26088.17266920 -.00000002  00000+0  00000+0 0  9997
2 66142   5.6478 299.8529 0007985  98.2705 273.0216  1.00268506  1533
CMS-03 (GSAT-7R)        
1 66311U 25249B   26088.12985351 -.00000096  00000+0  00000+0 0  9991
2 66311   0.0247 252.6850 0003462 104.0540 310.5480  1.00271987  1545
VIASAT-3 F2             
1 66454U 25261A   26088.17084699 -.00000253  00000+0  00000+0 0  9998
2 66454   0.0578 271.3560 0001790 164.3124  93.3960  1.00273753  1985
SHIJIAN-28 (SJ-28)      
1 66549U 25277A   26087.99572443 -.00000388  00000+0  00000+0 0  9997
2 66549   4.7449 273.3590 0000237   6.8206  21.4888  1.00272818  1352
TJS-22                  
1 66990U 25290A   26088.08866007 -.00000029  00000+0  00000+0 0  9997
2 66990   1.7263 285.6375 0002494   1.9022 357.3176  1.00271968  1221
TJS-23                  
1 67226U 25306A   26087.82235959 -.00000011  00000+0  00000+0 0  9996
2 67226   5.7718 297.8821 0006346 116.0227 243.8438  1.00273025  1089
FENGYUN 4C              
1 67246U 25312A   26088.21279384 -.00000342  00000+0  00000+0 0  9996
2 67246   0.0366  48.4266 0000607  16.9150 330.8666  1.00271239   970
SHIJIAN-29A (SJ-29A)    
1 67302U 25315A   26087.91581832 -.00000085  00000+0  00000+0 0  9996
2 67302   3.1941  97.1279 0002431 311.6495 180.4480  1.00273610   816
