[{"OBJECT_NAME":"TIANLIAN 2-05","OBJECT_ID":"2025-084A","EPOCH":"2026-03-29T04:34:20.964288","MEAN_MOTION":1.00270064,"ECCENTRICITY":0.0003397,"INCLINATION":4.6541,"RA_OF_ASC_NODE":280.718,"ARG_OF_PERICENTER":93.911,"MEAN_ANOMALY":260.8993,"EPHEMERIS_TYPE":0,"CLASSIFICATION_TYPE":"U","NORAD_CAT_ID":63662,"ELEMENT_SET_NO":999,"REV_AT_EPOCH":357,"BSTAR":0,"MEAN_MOTION_DOT":9.6e-7,"MEAN_MOTION_DDOT":0},{"OBJECT_NAME":"TJS-19","OBJECT_ID":"2025-097A","EPOCH":"2026-03-28T18:03:04.756032","MEAN_MOTION":1.00274898,"ECCENTRICITY":0.0002522,"INCLINATION":3.4239,"RA_OF_ASC_NODE":316.1791,"ARG_OF_PERICENTER":336.7721,"MEAN_ANOMALY":305.1825,"EPHEMERIS_TYPE":0,"CLASSIFICATION_TYPE":"U","NORAD_CAT_ID":63924,"ELEMENT_SET_NO":999,"REV_AT_EPOCH":333,"BSTAR":0,"MEAN_MOTION_DOT":-2.99e-6,"MEAN_MOTION_DDOT":0},{"OBJECT_NAME":"CHINASAT 3B","OBJECT_ID":"2025-106A","EPOCH":"2026-03-28T02:54:38.527200","MEAN_MOTION":1.00270398,"ECCENTRICITY":0.00013947,"INCLINATION":0.0423,"RA_OF_ASC_NODE":0.845,"ARG_OF_PERICENTER":349.2474,"MEAN_ANOMALY":46.4072,"EPHEMERIS_TYPE":0,"CLASSIFICATION_TYPE":"U","NORAD_CAT_ID":64062,"ELEMENT_SET_NO":999,"REV_AT_EPOCH":324,"BSTAR":0,"MEAN_MOTION_DOT":-6.5e-7,"MEAN_MOTION_DDOT":0},{"OBJECT_NAME":"SXM-10","OBJECT_ID":"2025-122A","EPOCH":"2026-03-29T03:18:38.644992","MEAN_MOTION":1.00271482,"ECCENTRICITY":0.000263,"INCLINATION":0.0402,"RA_OF_ASC_NODE":34.673,"ARG_OF_PERICENTER":332.3394,"MEAN_ANOMALY":113.0144,"EPHEMERIS_TYPE":0,"CLASSIFICATION_TYPE":"U","NORAD_CAT_ID":64290,"ELEMENT_SET_NO":999,"REV_AT_EPOCH":288,"BSTAR":0,"MEAN_MOTION_DOT":-3.6e-7,"MEAN_MOTION_DDOT":0},{"OBJECT_NAME":"CHINASAT 9C","OBJECT_ID":"2025-132A","EPOCH":"2026-03-24T18:48:20.594880","MEAN_MOTION":1.00270458,"ECCENTRICITY":0.00026119,"INCLINATION":0.0154,"RA_OF_ASC_NODE":188.5944,"ARG_OF_PERICENTER":160.8242,"MEAN_ANOMALY":207.1098,"EPHEMERIS_TYPE":0,"CLASSIFICATION_TYPE":"U","NORAD_CAT_ID":64470,"ELEMENT_SET_NO":999,"REV_AT_EPOCH":330,"BSTAR":0,"MEAN_MOTION_DOT":-2.56e-6,"MEAN_MOTION_DDOT":0},{"OBJECT_NAME":"MTG-S1","OBJECT_ID":"2025-143A","EPOCH":"2026-03-29T04:27:36.609696","MEAN_MOTION":1.00271994,"ECCENTRICITY":0.0002355,"INCLINATION":0.6269,"RA_OF_ASC_NODE":331.1047,"ARG_OF_PERICENTER":349.6462,"MEAN_ANOMALY":289.2002,"EPHEMERIS_TYPE":0,"CLASSIFICATION_TYPE":"U","NORAD_CAT_ID":64723,"ELEMENT_SET_NO":999,"REV_AT_EPOCH":261,"BSTAR":0,"MEAN_MOTION_DOT":-5.2e-7,"MEAN_MOTION_DDOT":0},{"OBJECT_NAME":"DROR 1","OBJECT_ID":"2025-148A","EPOCH":"2026-03-29T04:27:21.633120","MEAN_MOTION":1.00271724,"ECCENTRICITY":0.0003623,"INCLINATION":0.0354,"RA_OF_ASC_NODE":70.4166,"ARG_OF_PERICENTER":285.6161,"MEAN_ANOMALY":253.3751,"EPHEMERIS_TYPE":0,"CLASSIFICATION_TYPE":"U","NORAD_CAT_ID":64784,"ELEMENT_SET_NO":999,"REV_AT_EPOCH":249,"BSTAR":0,"MEAN_MOTION_DOT":-5.4e-7,"MEAN_MOTION_DDOT":0},{"OBJECT_NAME":"SHIYAN-29","OBJECT_ID":"2025-196A","EPOCH":"2026-03-28T18:39:35.514432","MEAN_MOTION":1.00280818,"ECCENTRICITY":0.00097908,"INCLINATION":28.7378,"RA_OF_ASC_NODE":19.5487,"ARG_OF_PERICENTER":181.385,"MEAN_ANOMALY":0.488,"EPHEMERIS_TYPE":0,"CLASSIFICATION_TYPE":"U","NORAD_CAT_ID":65486,"ELEMENT_SET_NO":999,"REV_AT_EPOCH":207,"BSTAR":0,"MEAN_MOTION_DOT":-2.83e-6,"MEAN_MOTION_DDOT":0},{"OBJECT_NAME":"NUSANTARA LIMA (NUSANTARA 5)","OBJECT_ID":"2025-205A","EPOCH":"2026-03-29T01:35:25.848096","MEAN_MOTION":1.00272868,"ECCENTRICITY":7.72e-5,"INCLINATION":0.053,"RA_OF_ASC_NODE":37.1406,"ARG_OF_PERICENTER":2.4587,"MEAN_ANOMALY":283.5801,"EPHEMERIS_TYPE":0,"CLASSIFICATION_TYPE":"U","NORAD_CAT_ID":65588,"ELEMENT_SET_NO":999,"REV_AT_EPOCH":191,"BSTAR":0,"MEAN_MOTION_DOT":-3.77e-6,"MEAN_MOTION_DDOT":0},{"OBJECT_NAME":"TJS-20","OBJECT_ID":"2025-238A","EPOCH":"2026-03-29T04:08:38.618880","MEAN_MOTION":1.00268506,"ECCENTRICITY":0.0007985,"INCLINATION":5.6478,"RA_OF_ASC_NODE":299.8529,"ARG_OF_PERICENTER":98.2705,"MEAN_ANOMALY":273.0216,"EPHEMERIS_TYPE":0,"CLASSIFICATION_TYPE":"U","NORAD_CAT_ID":66142,"ELEMENT_SET_NO":999,"REV_AT_EPOCH":153,"BSTAR":0,"MEAN_MOTION_DOT":-2.0e-8,"MEAN_MOTION_DDOT":0},{"OBJECT_NAME":"CMS-03 (GSAT-7R)","OBJECT_ID":"2025-249B","EPOCH":"2026-03-29T03:06:59.343264","MEAN_MOTION":1.00271987,"ECCENTRICITY":0.0003462,"INCLINATION":0.0247,"RA_OF_ASC_NODE":252.685,"ARG_OF_PERICENTER":104.054,"MEAN_ANOMALY":310.548,"EPHEMERIS_TYPE":0,"CLASSIFICATION_TYPE":"U","NORAD_CAT_ID":66311,"ELEMENT_SET_NO":999,"REV_AT_EPOCH":154,"BSTAR":0,"MEAN_MOTION_DOT":-9.6e-7,"MEAN_MOTION_DDOT":0},{"OBJECT_NAME":"VIASAT-3 F2","OBJECT_ID":"2025-261A","EPOCH":"2026-03-29T04:06:01.179936","MEAN_MOTION":1.00273753,"ECCENTRICITY":0.000179,"INCLINATION":0.0578,"RA_OF_ASC_NODE":271.356,"ARG_OF_PERICENTER":164.3124,"MEAN_ANOMALY":93.396,"EPHEMERIS_TYPE":0,"CLASSIFICATION_TYPE":"U","NORAD_CAT_ID":66454,"ELEMENT_SET_NO":999,"REV_AT_EPOCH":198,"BSTAR":0,"MEAN_MOTION_DOT":-2.53e-6,"MEAN_MOTION_DDOT":0},{"OBJECT_NAME":"SHIJIAN-28 (SJ-28)","OBJECT_ID":"2025-277A","EPOCH":"2026-03-28T23:53:50.590752","MEAN_MOTION":1.00272818,"ECCENTRICITY":2.37e-5,"INCLINATION":4.7449,"RA_OF_ASC_NODE":273.359,"ARG_OF_PERICENTER":6.8206,"MEAN_ANOMALY":21.4888,"EPHEMERIS_TYPE":0,"CLASSIFICATION_TYPE":"U","NORAD_CAT_ID":66549,"ELEMENT_SET_NO":999,"REV_AT_EPOCH":135,"BSTAR":0,"MEAN_MOTION_DOT":-3.88e-6,"MEAN_MOTION_DDOT":0},{"OBJECT_NAME":"TJS-22","OBJECT_ID":"2025-290A","EPOCH":"2026-03-29T02:07:40.230048","MEAN_MOTION":1.00271968,"ECCENTRICITY":0.0002494,"INCLINATION":1.7263,"RA_OF_ASC_NODE":285.6375,"ARG_OF_PERICENTER":1.9022,"MEAN_ANOMALY":357.3176,"EPHEMERIS_TYPE":0,"CLASSIFICATION_TYPE":"U","NORAD_CAT_ID":66990,"ELEMENT_SET_NO":999,"REV_AT_EPOCH":122,"BSTAR":0,"MEAN_MOTION_DOT":-2.9e-7,"MEAN_MOTION_DDOT":0},{"OBJECT_NAME":"TJS-23","OBJECT_ID":"2025-306A","EPOCH":"2026-03-28T19:44:11.868576","MEAN_MOTION":1.00273025,"ECCENTRICITY":0.0006346,"INCLINATION":5.7718,"RA_OF_ASC_NODE":297.8821,"ARG_OF_PERICENTER":116.0227,"MEAN_ANOMALY":243.8438,"EPHEMERIS_TYPE":0,"CLASSIFICATION_TYPE":"U","NORAD_CAT_ID":67226,"ELEMENT_SET_NO":999,"REV_AT_EPOCH":108,"BSTAR":0,"MEAN_MOTION_DOT":-1.1e-7,"MEAN_MOTION_DDOT":0},{"OBJECT_NAME":"FENGYUN 4C","OBJECT_ID":"2025-312A","EPOCH":"2026-03-29T05:06:25.387776","MEAN_MOTION":1.00271239,"ECCENTRICITY":6.07e-5,"INCLINATION":0.0366,"RA_OF_ASC_NODE":48.4266,"ARG_OF_PERICENTER":16.915,"MEAN_ANOMALY":330.8666,"EPHEMERIS_TYPE":0,"CLASSIFICATION_TYPE":"U","NORAD_CAT_ID":67246,"ELEMENT_SET_NO":999,"REV_AT_EPOCH":97,"BSTAR":0,"MEAN_MOTION_DOT":-3.42e-6,"MEAN_MOTION_DDOT":0},{"OBJECT_NAME":"SHIJIAN-29A (SJ-29A)","OBJECT_ID":"2025-315A","EPOCH":"2026-03-28T21:58:46.702848","MEAN_MOTION":1.0027361,"ECCENTRICITY":0.00024312,"INCLINATION":3.1941,"RA_OF_ASC_NODE":97.1279,"ARG_OF_PERICENTER":311.6495,"MEAN_ANOMALY":180.448,"EPHEMERIS_TYPE":0,"CLASSIFICATION_TYPE":"U","NORAD_CAT_ID":67302,"ELEMENT_SET_NO":999,"REV_AT_EPOCH":81,"BSTAR":0,"MEAN_MOTION_DOT":-8.5e-7,"MEAN_MOTION_DDOT":0}]
